都道府県コード又は市区町村コード,NO,都道府県名,市区町村名,名称,名称_カナ,名称_通称,POIコード,住所,方書,lat,lon,電話番号,内線番号,法人番号,団体名,利用可能曜日,開始時間,終了時間,利用可能時間特記事項,説明,バリアフリー情報,URL,備考
472018,,沖縄県,那覇市,首里城公園,,,,那覇市首里金城町1-2,,127.71538,26.218347,098-886-2020,,,,,,,,,,https://www.pref.okinawa.jp/site/doboku/koen/ryokuchi/syurijyo.html,県営都市公園
472018,,沖縄県,那覇市,奥武山公園,,,,"沖縄県那覇市奥武山町52
(奥武山公園運営管理事務所)",,127.674284,26.204643,098-858-2700,,,,,,,,,,https://www.pref.okinawa.jp/site/doboku/koen/ryokuchi/ounoyamakouen.html,県営都市公園
472018,,沖縄県,那覇市,海軍壕公園,,,,沖縄県豊見城市字豊見城236番地,,127.676886,26.186471,098-850-4055,,,,,,,,,,https://www.pref.okinawa.jp/site/doboku/koen/ryokuchi/kaigungoukouen.html,県営都市公園
472018,,沖縄県,那覇市,古波蔵市街地住宅,,,,那覇市古波蔵3-10-1,,127.684194,26.199617,,,,,,,,,,,,県公営住宅
472018,,沖縄県,那覇市,松川団地（建替中）,,,,那覇市繁多川2-5,,127.709204,26.212608,,,,,,,,,,,,県公営住宅
472018,,沖縄県,那覇市,古波蔵第２市街地住宅,,,,那覇市古波蔵2-7-1,,127.686082,26.200336,,,,,,,,,,,,県公営住宅
472018,,沖縄県,那覇市,大橋市街地住宅,,,,那覇市壷川2-10-6,,127.681287,26.202874,,,,,,,,,,,,県公営住宅
472018,,沖縄県,那覇市,安岡市街地住宅,,,,那覇市銘苅288-3,,127.698484,26.236291,,,,,,,,,,,,県公営住宅
472018,,沖縄県,那覇市,美田市街地住宅,,,,那覇市古波蔵3-3-20,,127.68221,26.201217,,,,,,,,,,,,県公営住宅
472018,,沖縄県,那覇市,あけぼの市街地住宅,,,,那覇市曙3-9-1,,127.685496,26.242004,,,,,,,,,,,,県公営住宅
472018,,沖縄県,那覇市,三重城市街地住宅,,,,那覇市西3-9-1,,127.664785,26.215209,,,,,,,,,,,,県公営住宅
472018,,沖縄県,那覇市,上間市街地住宅,,,,那覇市上間295-1,,127.714969,26.197618,,,,,,,,,,,,県公営住宅
472018,,沖縄県,那覇市,国場市街地住宅,,,,那覇市国場1136-2,,127.693049,26.197745,,,,,,,,,,,,県公営住宅
472018,,沖縄県,那覇市,赤嶺市街地住宅,,,,那覇市赤嶺2-5-1,,127.660254,26.193903,,,,,,,,,,,,県公営住宅
472018,,沖縄県,那覇市,鳥堀市街地住宅,,,,那覇市首里鳥堀5-55-3,,127.729719,26.216697,,,,,,,,,,,,県公営住宅
472018,,沖縄県,那覇市,上之屋市街地住宅,,,,那覇市上之屋370,,127.683175,26.229374,,,,,,,,,,,,県公営住宅
472018,,沖縄県,那覇市,繁多川高層住宅,,,,那覇市繁多川1-16-30,,127.705824,26.212699,,,,,,,,,,,,県公営住宅
472018,,沖縄県,那覇市,上間第２市街地住宅,,,,那覇市上間300-1,,127.715627,26.197012,,,,,,,,,,,,県公営住宅
472018,,沖縄県,那覇市,古波蔵第３市街地住宅,,,,那覇市古波蔵3-4,,127.683099,26.200758,,,,,,,,,,,,県公営住宅
472018,,沖縄県,那覇市,天久高層住宅,,,,那覇市銘苅1-18-73,,127.700784,26.229608,,,,,,,,,,,,県公営住宅
472018,,沖縄県,那覇市,自治研修所,,,,那覇市西3-11-1（三重城合同庁舎）,,127.666635,26.216582,098-863-9311,,,,,,,,,,http://www.pref.okinawa.lg.jp/site/somu/jichiken/index.html,
472018,,沖縄県,那覇市,那覇県税事務所,,,,那覇市旭町116-37（南部合同庁舎）,,127.677148,26.210306,098-867-1066,,,,,,,,,,http://www.pref.okinawa.jp/site/somu/zeimu/choshu/8955.html,
472018,,沖縄県,那覇市,女性相談所,,,,那覇市寄宮2-4-1,,127.696806,26.20731,098-854-1172,,,,,,,,,,http://www.pref.okinawa.jp/site/kodomo/joseisodan/index.html,
472018,,沖縄県,那覇市,若夏学院,,,,那覇市首里大名町3-112,,127.721212,26.23073,098-884-1874,,,,,,,,,,https://www.pref.okinawa.lg.jp/site/kodomo/wakanatsu/shomu/hptop.html,
472018,,沖縄県,那覇市,中央児童相談所,,,,那覇市首里石嶺町4-404-2,,127.73456,26.233398,098-886-2900,,,,,,,,,,http://www.pref.okinawa.jp/site/kodomo/jiso-chuo/index.html,
472018,,沖縄県,那覇市,知的障害者更生相談所,,,,那覇市首里石嶺町4-385-1,,127.73377,26.231458,098-886-2241,,,,,,,,,,http://www.pref.okinawa.jp/site/kodomo/shinshoshasodan/index.html,
472018,,沖縄県,那覇市,身体障害者更生相談所,,,,那覇市首里石嶺町4-385-1,,127.73377,26.231457,098-886-2241,,,,,,,,,,http://www.pref.okinawa.jp/site/kodomo/shinshoshasodan/index.html,
472018,,沖縄県,那覇市,沖縄県立看護大学,,,,那覇市与儀1-24-1,,127.694895,26.205772,098-833-8800,,,,,,,,,,http://www.okinawa-nurs.ac.jp,
472018,,沖縄県,那覇市,病害虫防除技術センター,,,,那覇市真地123,,127.719452,26.20761,098-886-3880,,,,,,,,,,http://www.pref.okinawa.jp/site/norin/byogaichubojo,
472018,,沖縄県,那覇市,南部農林土木事務所,,,,那覇市旭町116-37（南部合同庁舎）,,127.677148,26.210306,098-867-2770,,,,,,,,,,http://www.pref.okinawa.jp/nanji,
472018,,沖縄県,那覇市,南部林業事務所,,,,那覇市旭町116-37（南部合同庁舎）,,127.677148,26.210306,098-941-2583,,,,,,,,,,http://www.pref.okinawa.jp/site/norin/ringyo/index.html,
472018,,沖縄県,那覇市,沖縄県立芸術大学,,,,那覇市首里当蔵町1-4,,127.718943,26.219406,098-882-5000,,,,,,,,,,http://www.okigei.ac.jp,
472018,,沖縄県,那覇市,沖縄県立博物館・美術館,,,,那覇市おもろまち3-1-1,,127.693961,26.227201,098-941-8200,,,,,,,,,,http://museums.pref.okinawa.jp/index.jsp,
472018,,沖縄県,那覇市,南部土木事務所,,,,那覇市旭町116-37（南部合同庁舎）,,127.677148,26.2103,098-866-1129,,,,,,,,,,http://www.pref.okinawa.jp/site/doboku/doboku-nan,
472018,,沖縄県,那覇市,那覇浄化センター（みずクリン那覇）,,,,那覇市西3-10-1,,127.664261,26.21617,098-868-3310,,,,,,,,,,http://www.pref.okinawa.jp/site/doboku/gesuikan/shomu/naha.html,
472018,,沖縄県,那覇市,那覇教育事務所,,,,那覇市旭町116-37（南部合同庁舎）,,127.677148,26.2103,098-867-2710,,,,,,,,,,http://www.pref.okinawa.jp/edu/naha/madoguchi/jimusho/naha,
472018,,沖縄県,那覇市,沖縄県立図書館,,,,那覇市泉崎1丁目20番1号　カフーナ旭橋A街区６階,,127.676655,26.211273,098-894-7086,,,,,,,,,,https://www.library.pref.okinawa.jp/,
472018,,沖縄県,那覇市,金城ダム管理所,,,,那覇市繁多川4-553-2,,127.717177,26.212045,098-885-5210,,,,,,,,,,https://www.pref.okinawa.jp/site/doboku/doboku-nan/kinjo.html,
472018,,沖縄県,那覇市,生涯学習推進センター,,,,那覇市旭町116-37（南部合同庁舎4階）,,127.677148,26.2103,098-864-0474,,,,,,,,,,https://www.pref.okinawa.lg.jp/edu/shogaigakushu/suishin/101.html,
472018,,沖縄県,那覇市,離島児童生徒支援センター,,,,那覇市東町21-1,,127.673517,26.212453,098-866-2733,,,,,,,,,,http://www.pref.okinawa.jp/edu/ritoushien/index.html,
472018,,沖縄県,那覇市,沖縄県旅券センター,,,,那覇市旭町116-37（南部合同庁舎2階）,,127.677148,26.210306,098-866-2775,,,,,,,,,,http://www.pref.okinawa.jp/site/bunka-sports/koryu/ryoken/10454.html,
472018,,沖縄県,那覇市,沖縄県本庁舎,,,,那覇市泉崎1-2-2,,127.681163,26.212585,098-866-2333,,,,,,,,,,http://www.pref.okinawa.jp,県庁舎
472018,,沖縄県,那覇市,沖縄県南部合同庁舎,,,,那覇市旭町116-37,,127.677148,26.210306,,,,,,,,,,,https://www.pref.okinawa.jp/site/somu/kanzai/chosha/nanbu.html,県庁舎
472018,,沖縄県,那覇市,沖縄県三重城合同庁舎,,,,那覇市西3-11-1,,127.666635,26.216582,,,,,,,,,,,https://www.pref.okinawa.jp/site/somu/jichiken/1910.html,県庁舎
472018,,沖縄県,那覇市,沖縄県議会,,,,那覇市泉崎1-2-3,,127.680058,26.212763,,,,,,,,,,,https://www.pref.okinawa.jp/site/gikai/,県庁舎
472051,,沖縄県,宜野湾市,大謝名団地,,,,宜野湾市大謝名5-23,,127.73153,26.267106,,,,,,,,,,,,県公営住宅
472051,,沖縄県,宜野湾市,大山高層住宅,,,,宜野湾市大山6-33-1,,127.742112,26.280953,,,,,,,,,,,,県公営住宅
472051,,沖縄県,宜野湾市,愛知高層住宅,,,,宜野湾市愛知2-2-1,,127.770255,26.269809,,,,,,,,,,,,県公営住宅
472051,,沖縄県,宜野湾市,志真志団地,,,,宜野湾市我如古2-5,,127.758148,26.255108,,,,,,,,,,,,県公営住宅
472051,,沖縄県,宜野湾市,下水道事務所,,,,宜野湾市伊佐3-12-1,,127.754116,26.291406,098-898-5988,,,,,,,,,,http://www.pref.okinawa.jp/site/doboku/gesuikan,
472051,,沖縄県,宜野湾市,宜野湾浄化センター（みずクリン宜野湾）,,,,宜野湾市伊佐3-12-1,,127.754116,26.291406,098-899-2801,,,,,,,,,,http://www.pref.okinawa.jp/site/doboku/gesuikan/shomu/ginowan.html,
472077,,沖縄県,石垣市,バンナ公園,,,,沖縄県石垣市字石垣961-15 ,,124.157776,24.368128,0980-82-6993,,,,,,,,,,https://www.pref.okinawa.jp/site/doboku/koen/ryokuchi/bannakouen.html,県営都市公園
472077,,沖縄県,石垣市,登野城団地,,,,石垣市登野城1011,,124.170658,24.342704,,,,,,,,,,,,県公営住宅
472077,,沖縄県,石垣市,新川団地(建替中）,,,,石垣市新川2212,,124.142949,24.355438,,,,,,,,,,,,県公営住宅
472077,,沖縄県,石垣市,真喜良団地（建替中）,,,,石垣市新川真喜良2357-25,,124.153214,24.344885,,,,,,,,,,,,県公営住宅
472077,,沖縄県,石垣市,真喜良第２団地（建替中）,,,,石垣市新川真喜良2352,,124.153214,24.344885,,,,,,,,,,,,県公営住宅
472077,,沖縄県,石垣市,磯辺団地,,,,石垣市大浜1349-1,,124.196668,24.343619,,,,,,,,,,,,県公営住宅
472077,,沖縄県,石垣市,磯辺第２団地,,,,石垣市大浜1349-43,,124.204865,24.356834,,,,,,,,,,,,県公営住宅
472077,,沖縄県,石垣市,真喜良第３団地,,,,石垣市新川真喜良2345,,124.153214,24.344885,,,,,,,,,,,,県公営住宅
472077,,沖縄県,石垣市,新川第２団地,,,,石垣市新川2334,,124.140987,24.356618,,,,,,,,,,,,県公営住宅
472077,,沖縄県,石垣市,平真団地,,,,石垣市真栄里109,,124.170575,24.334423,,,,,,,,,,,,県公営住宅
472077,,沖縄県,石垣市,宮良団地,,,,石垣市宮良1055-52,,124.208215,24.358464,,,,,,,,,,,,県公営住宅
472077,,沖縄県,石垣市,八重山事務所,,,,石垣市真栄里438-1（八重山合同庁舎）,,124.187846,24.340397,0980-82-3040,,,,,,,,,,http://www.pref.okinawa.lg.jp/site/somu/yaeyama/index.html,
472077,,沖縄県,石垣市,八重山福祉事務所,,,,石垣市字真栄里438-1,,124.187847,24.340397,0980-82-2330,,,,,,,,,,http://www.pref.okinawa.jp/site/kodomo/fukushi-yaeyama/index.html,
472077,,沖縄県,石垣市,八重山保健所,,,,石垣市字真栄里438,,124.187142,24.340401,0980-82-3240,,,,,,,,,,http://www.pref.okinawa.jp/site/hoken/hoken-yaeyama/,
472077,,沖縄県,石垣市,八重山農林水産振興センター,,,,石垣市字真栄里438-1（八重山合同庁舎）,,124.187846,24.340397,0980-82-3043,,,,,,,,,,http://www.pref.okinawa.jp/site/norin/norin-yaeyama,
472077,,沖縄県,石垣市,八重山家畜保健衛生所（八重山農林水産振興センター家畜保健衛生課）,,,,石垣市宮良1-2,,124.231011,24.35066,0980-84-4111,,,,,,,,,,http://www.pref.okinawa.jp/site/norin/norin-yaeyama-kaho/index.html,
472077,,沖縄県,石垣市,農業研究センター　石垣支所,,,,石垣市平得地底原1178-6,,124.191581,24.381831,0980-82-4067,,,,,,,,,,http://www.pref.okinawa.lg.jp/site/norin/noken-ishigaki/index.html,
472077,,沖縄県,石垣市,水産海洋技術センター　石垣支所,,,,石垣市字川平828-2,,124.142801,24.463782,0980-88-2255,,,,,,,,,,,
472077,,沖縄県,石垣市,八重山土木事務所,,,,石垣市真栄里438-1（八重山合同庁舎）,,124.187846,24.340397,0980-82-2217,,,,,,,,,,http://www.pref.okinawa.jp/site/doboku/doboku-yaeyama,
472077,,沖縄県,石垣市,八重山病院,,,,石垣市真栄里584-1,,124.183071,24.343353,0980-87-5557,,,,,,,,,,https://yaeyamaweb.hosp.pref.okinawa.jp/,
472077,,沖縄県,石垣市,八重山教育事務所,,,,石垣市真栄里438-1（八重山合同庁舎）,,124.187846,24.340397,0980-82-3622,,,,,,,,,,http://www.pref.okinawa.jp/edu/yaeyama/madoguchi/jimusho/yaeyama,
472077,,沖縄県,石垣市,石垣青少年の家,,,,石垣市字新川868,,124.143518,24.368827,0980-82-7301,,,,,,,,,,http://ishigakiseishounennoie.com,
472077,,沖縄県,石垣市,真栄里ダム管理所,,,,石垣市字大浜2476-336,,124.206938,24.418331,0980-83-0233,,,,,,,,,,http://www.pref.okinawa.jp/site/doboku/kasen/kikaku/maezatodamu.html,
472077,,沖縄県,石垣市,名蔵ダム管理所,,,,石垣市登野城嵩田2389-479,,124.176127,24.410485,0980-88-6416,,,,,,,,,,http://www.pref.okinawa.jp/site/norin/norin-yaeyama-nosui/keikaku/dam/sokobaru/nagura-top.html,
472077,,沖縄県,石垣市,底原ダム管理所,,,,石垣市宮良2166-262,,124.214615,24.420503,0980-82-1791,,,,,,,,,,http://www.pref.okinawa.jp/site/norin/norin-yaeyama-nosui/keikaku/dam/sokobaru/sokobarutop.html,
472077,,沖縄県,石垣市,八重山平和祈念館,,,,石垣市新栄町79-3,,124.146059,24.349034,0980-88-6161,,,,,,,,,,http://www.pref.okinawa.jp/yaeyama-peace-museum/,
472077,,沖縄県,石垣市,沖縄県八重山合同庁舎,,,,石垣市字真栄里438-1,,124.187846,24.340397,,,,,,,,,,,http://www.pref.okinawa.jp/site/somu/yaeyama/shinko/kannkeikiiann.html,県庁舎
472085,,沖縄県,浦添市,浦添大公園,,,,"浦添市仲間2-53
（南エントランス管理事務所）",,127.726652,26.254577,098-873-0700,,,,,,,,,,https://www.pref.okinawa.jp/site/doboku/koen/ryokuchi/urasoedaikoen.html,県営都市公園
472085,,沖縄県,浦添市,神森団地,,,,浦添市仲西3-11,,127.698571,26.244687,,,,,,,,,,,,県公営住宅
472085,,沖縄県,浦添市,牧港団地（建替中）,,,,浦添市牧港4-1,,127.728272,26.262534,,,,,,,,,,,,県公営住宅
472085,,沖縄県,浦添市,城間団地,,,,浦添市城間4-36-1,,127.714423,26.261259,,,,,,,,,,,,県公営住宅
472085,,沖縄県,浦添市,港川市街地住宅,,,,浦添市港川458-1,,127.714534,26.268095,,,,,,,,,,,,県公営住宅
472085,,沖縄県,浦添市,浦添市市街地住宅,,,,浦添市牧港1-59,,127.719495,26.266434,,,,,,,,,,,,県公営住宅
472085,,沖縄県,浦添市,経塚市街地住宅,,,,浦添市経塚560,,127.720105,26.234976,,,,,,,,,,,,県公営住宅
472085,,沖縄県,浦添市,沢岻高層住宅,,,,浦添市沢岻2-18-1,,127.714291,26.235742,,,,,,,,,,,,県公営住宅
472085,,沖縄県,浦添市,自動車税事務所,,,,浦添市字港川500-10,,127.713925,26.2719,098-879-1632,,,,,,,,,,http://www.pref.okinawa.jp/site/somu/zeimu/choshu/8958.html,
472085,,沖縄県,浦添市,中央卸売市場,,,,浦添市伊奈武瀬1-11-1,,127.669819,26.247044,098-865-2111,,,,,,,,,,http://www.pref.okinawa.jp/site/norin/oroshiuri,
472085,,沖縄県,浦添市,浦添職業能力開発校,,,,浦添市字大平531,,127.713067,26.242018,098-878-5627,,,,,,,,,,http://www.pref.okinawa.lg.jp/site/shoko/shokuno-urse/index.html,
472085,,沖縄県,浦添市,都市モノレール建設事務所,,,,浦添市前田141街区6（前田565-2）,,127.731884,26.239326,098-943-5520,,,,,,,,,,http://www.pref.okinawa.jp/site/doboku/toshimonoken,
472093,,沖縄県,名護市,名護中央公園,,,,名護市名護,,127.998182,26.591487,0980-52-7434,,,,,,,,,,https://www.pref.okinawa.jp/site/doboku/koen/ryokuchi/nagotyuoukouen.html,県営都市公園
472093,,沖縄県,名護市,名護団地（第二）,,,,名護市大北3-14-1,,127.996072,26.603329,,,,,,,,,,,,県公営住宅
472093,,沖縄県,名護市,宇茂佐団地,,,,名護市宇茂佐1709-11,,127.966875,26.610406,,,,,,,,,,,,県公営住宅
472093,,沖縄県,名護市,大北団地,,,,名護市大北3-16-1,,127.99637,26.604252,,,,,,,,,,,,県公営住宅
472093,,沖縄県,名護市,伊差川団地,,,,名護市伊差川906,,128.000325,26.613262,,,,,,,,,,,,県公営住宅
472093,,沖縄県,名護市,宇茂佐高層住宅,,,,名護市宇茂佐1712-13,,127.966886,26.606811,,,,,,,,,,,,県公営住宅
472093,,沖縄県,名護市,大宮高層住宅,,,,名護市大北5-23-1,,127.981774,26.606615,,,,,,,,,,,,県公営住宅
472093,,沖縄県,名護市,東江高層住宅,,,,名護市東江5-1-1,,127.983569,26.585003,,,,,,,,,,,,県公営住宅
472093,,沖縄県,名護市,名護団地,,,,名護市大北3-14-1,,127.995066,26.604612,,,,,,,,,,,,県公営住宅
472093,,沖縄県,名護市,名護県税事務所,,,,名護市大南1-13-11（北部合同庁舎）,,127.978963,26.593494,0980-52-2170,,,,,,,,,,http://www.pref.okinawa.jp/site/somu/zeimu/choshu/8957.html,
472093,,沖縄県,名護市,北部福祉事務所,,,,名護市大中2-13-1,,127.987596,26.593419,0980-52-2714,,,,,,,,,,http://www.pref.okinawa.jp/site/kodomo/fukushi-hoku/index.html,
472093,,沖縄県,名護市,北部保健所,,,,名護市大中2-13-1,,127.987596,26.593419,0980-52-2714,,,,,,,,,,http://www.pref.okinawa.jp/site/hoken/hoken-hoku/,
472093,,沖縄県,名護市,北部食肉衛生検査所,,,,名護市大南1-13-11（北部合同庁舎）,,127.978963,26.593494,0980-52-1165,,,,,,,,,,-,
472093,,沖縄県,名護市,北部農林水産振興センター,,,,名護市大南1-13-11（北部合同庁舎）,,127.978963,26.593494,0980-53-7187,,,,,,,,,,http://www.pref.okinawa.jp/site/norin/norin-hoku/index.html,
472093,,沖縄県,名護市,北部家畜保健衛生所（北部農林水産振興センター家畜保健衛生課）,,,,名護市名護4606-4,,127.982434,26.615761,0980-52-2939,,,,,,,,,,https://www.pref.okinawa.lg.jp/site/norin/norin-hoku-kaho/17214.html,
472093,,沖縄県,名護市,農業研究センター　名護支所,,,,名護市字名護4605-3,,127.984274,26.618796,0980-52-2811,,,,,,,,,,http://www.pref.okinawa.jp/site/norin/noken-nago/index.html,
472093,,沖縄県,名護市,森林資源研究センター,,,,名護市名護4605-5,,127.98404,26.618407,0980-52-2091,,,,,,,,,,http://www.pref.okinawa.jp/site/norin/shinrinken/index.html,
472093,,沖縄県,名護市,農業大学校,,,,名護市大北1-15-9,,127.988137,26.601302,0980-52-0050,,,,,,,,,,http://www.pref.okinawa.jp/site/norin/nodai,
472093,,沖縄県,名護市,北部土木事務所,,,,名護市大南1-13-11（北部合同庁舎）,,127.978963,26.593494,0980-53-1255,,,,,,,,,,http://www.pref.okinawa.jp/site/doboku/doboku-hoku,
472093,,沖縄県,名護市,久志浄水管理事務所（久志浄水場）,,,,名護市字久志1100,,128.001164,26.51502,0980-55-2742,,,,,,,,,,http://www.eb.pref.okinawa.jp/water/72/186#a01,
472093,,沖縄県,名護市,北部病院,,,,名護市大中2-12-3,,127.986207,26.592412,0980-52-2719,,,,,,,,,,http://www.hosp.pref.okinawa.jp/hokubu,
472093,,沖縄県,名護市,国頭教育事務所,,,,名護市大南1-13-11（北部合同庁舎）,,127.978963,26.593494,0980-52-2664,,,,,,,,,,http://www.pref.okinawa.jp/edu/kunigami/madoguchi/jimusho/kunigami,
472093,,沖縄県,名護市,名護青少年の家,,,,名護市字名護5511,,127.997066,26.589154,0980-52-2076,,,,,,,,,,http://www.opnyc.jp,
472093,,沖縄県,名護市,真喜屋ダム管理所,,,,名護市仲尾次堀屋1397-1,,128.036205,26.622727,0980-58-4556,,,,,,,,,,,
472093,,沖縄県,名護市,名護浄水場,,,,名護市大北3-28-36,,127.996097,26.60616,0980-53-2633,,,,,,,,,,http://www.eb.pref.okinawa.jp/opeb/43/44,
472093,,沖縄県,名護市,沖縄県北部合同庁舎,,,,名護市大南1-13-11,,127.978963,26.593494,,,,,,,,,,,https://www.pref.okinawa.jp/site/somu/kanzai/chosha/hokubu.html,県庁舎
472107,,沖縄県,糸満市,平和祈念公園,,,,沖縄県糸満市字摩文仁444番地,,127.723105,26.096482,098-997-2765,,,,,,,,,,https://www.pref.okinawa.jp/site/doboku/koen/ryokuchi/heiwakinenkouen.html,県営都市公園
472107,,沖縄県,糸満市,浜川団地,,,,糸満市兼城340,,127.673233,26.141677,,,,,,,,,,,,県公営住宅
472107,,沖縄県,糸満市,西崎団地,,,,糸満市西崎2-5-1,,127.666183,26.144021,,,,,,,,,,,,県公営住宅
472107,,沖縄県,糸満市,西崎第２団地,,,,糸満市西崎3-7-9,,127.661678,26.148626,,,,,,,,,,,,県公営住宅
472107,,沖縄県,糸満市,真栄里団地,,,,糸満市真栄里1860-1,,127.667309,26.118379,,,,,,,,,,,,県公営住宅
472107,,沖縄県,糸満市,高嶺団地,,,,糸満市大里2018,,127.685741,26.124298,,,,,,,,,,,,県公営住宅
472107,,沖縄県,糸満市,賀数団地,,,,糸満市賀数481,,127.689343,26.150944,,,,,,,,,,,,県公営住宅
472107,,沖縄県,糸満市,新垣団地,,,,糸満市国吉834,,127.693421,26.119994,,,,,,,,,,,,県公営住宅
472107,,沖縄県,糸満市,米須団地,,,,糸満市米須824-1,,127.694413,26.09607,,,,,,,,,,,,県公営住宅
472107,,沖縄県,糸満市,潮平高層住宅,,,,糸満市潮平791,,127.670816,26.150932,,,,,,,,,,,,県公営住宅
472107,,沖縄県,糸満市,平和祈念資料館,,,,糸満市字摩文仁614-1,,127.725416,26.096523,098-997-3844,,,,,,,,,,https://www.pref.okinawa.jp/site/kodomo/heiwa_shiryokan/index.html,
472107,,沖縄県,糸満市,農業研究センター,,,,糸満市真壁820,,127.686199,26.110857,098-840-8500,,,,,,,,,,http://www.pref.okinawa.jp/arc,
472107,,沖縄県,糸満市,水産海洋技術センター,,,,糸満市喜屋武1528,,127.659081,26.083231,098-852-4530,,,,,,,,,,http://www.pref.okinawa.jp/fish,
472107,,沖縄県,糸満市,糸満青少年の家,,,,糸満市字賀数347,,127.693634,26.151937,098-994-6342,,,,,,,,,,http://www.j-ikusei.jp/itoman,
472115,,沖縄県,沖縄市,沖縄県総合運動公園,,,,沖縄県沖縄市比屋根5-3-1,,127.82139,26.31076,098-932-5114,,,,,,,,,,http://www.pref.okinawa.jp/site/doboku/toshimono/koen/kensougouundoukouen.html,県営都市公園
472115,,沖縄県,沖縄市,高原団地（建替中）,,,,沖縄市高原1-6,,127.812111,26.324442,,,,,,,,,,,,県公営住宅
472115,,沖縄県,沖縄市,美東団地,,,,沖縄市泡瀬4-6,,127.829468,26.320473,,,,,,,,,,,,県公営住宅
472115,,沖縄県,沖縄市,美咲団地,,,,沖縄市美里5-25,,127.812576,26.354194,,,,,,,,,,,,県公営住宅
472115,,沖縄県,沖縄市,浜原団地,,,,沖縄市与儀3-12,,127.818511,26.308102,,,,,,,,,,,,県公営住宅
472115,,沖縄県,沖縄市,古謝団地,,,,沖縄市古謝1226,,127.832378,26.341774,,,,,,,,,,,,県公営住宅
472115,,沖縄県,沖縄市,比屋根団地,,,,沖縄市比屋根2-10,,127.826896,26.313899,,,,,,,,,,,,県公営住宅
472115,,沖縄県,沖縄市,山里高層住宅,,,,沖縄市山里2-20,,127.791835,26.32038,,,,,,,,,,,,県公営住宅
472115,,沖縄県,沖縄市,浜原第２団地,,,,沖縄市与儀3-16,,127.816941,26.307924,,,,,,,,,,,,県公営住宅
472115,,沖縄県,沖縄市,北美団地,,,,沖縄市池原5-2-5,,127.827063,26.37882,,,,,,,,,,,,県公営住宅
472115,,沖縄県,沖縄市,胡屋高層住宅,,,,沖縄市胡屋7-3-5,,127.811077,26.324525,,,,,,,,,,,,県公営住宅
472115,,沖縄県,沖縄市,松本高層住宅,,,,沖縄市松本1-16-1,,127.815285,26.355442,,,,,,,,,,,,県公営住宅
472115,,沖縄県,沖縄市,八重島高層住宅,,,,沖縄市八重島2-12-1,,127.803452,26.349003,,,,,,,,,,,,県公営住宅
472115,,沖縄県,沖縄市,泡瀬団地,,,,沖縄市桃原345,,127.833295,26.331136,,,,,,,,,,,,県公営住宅
472115,,沖縄県,沖縄市,コザ県税事務所,,,,沖縄市美原1-6-34（中部合同庁舎行政棟）,,127.819945,26.347306,098-894-6500,,,,,,,,,,http://www.pref.okinawa.jp/site/somu/zeimu/choshu/8956.html,
472115,,沖縄県,沖縄市,中部福祉事務所,,,,沖縄市美原1-6-28（中部合同庁舎保健所棟）,,127.819795,26.347764,098-938-9886,,,,,,,,,,http://www.pref.okinawa.jp/site/kodomo/fukushi-chubu/index.html,
472115,,沖縄県,沖縄市,コザ児童相談所,,,,沖縄市字知花6-34-6,,127.81933,26.365085,098-937-0859,,,,,,,,,,http://www.pref.okinawa.jp/site/kodomo/jiso-koza/index.html,
472115,,沖縄県,沖縄市,中部保健所,,,,沖縄市美原1-6-28（中部合同庁舎保健所棟）,,127.819795,26.347764,098-938-9886,,,,,,,,,,http://www.pref.okinawa.jp/site/hoken/hoken-chubu/,
472115,,沖縄県,沖縄市,中部農業改良普及センター,,,,沖縄市美原1-6-34（中部合同庁舎行政棟）,,127.819945,26.347306,098-894-6521,,,,,,,,,,http://www.pref.okinawa.jp/site/norin/nokai-chubu/index.html,
472115,,沖縄県,沖縄市,中部農林土木事務所,,,,沖縄市美原1-6-34（中部合同庁舎行政棟）,,127.819945,26.347306,098-894-6525,,,,,,,,,,http://www.pref.okinawa.jp/site/norin/norindo-chubu/index.html,
472115,,沖縄県,沖縄市,中部土木事務所,,,,沖縄市美原1-6-34（中部合同庁舎）,,127.819945,26.347306,098-894-6510,,,,,,,,,,http://www.pref.okinawa.jp/site/doboku/doboku-chubu,
472115,,沖縄県,沖縄市,中頭教育事務所,,,,沖縄市美原1-6-34(中部合同庁舎）,,127.819945,26.347306,098-939-0044,,,,,,,,,,http://www.pref.okinawa.jp/edu/nakagami/madoguchi/jimusho/nakagami,
472115,,沖縄県,沖縄市,総合教育センター,,,,沖縄市与儀3-11-1,,127.818431,26.309298,098-933-7555,,,,,,,,,,http://www.edu-c.open.ed.jp,
472115,,沖縄県,沖縄市,中城湾港建設現場事務所,,,,沖縄市海邦町3-45,,127.843413,26.329436,098-937-1587,,,,,,,,,,https://www.pref.okinawa.jp/site/doboku/doboku-chubu/nakagusuku-genbajimusyo/nakagusuku-genbajimusyo.html,
472115,,沖縄県,沖縄市,中城湾港分室,,,,沖縄市海邦町3-45,,127.843413,26.329436,098-938-7711,,,,,,,,,,https://www.pref.okinawa.jp/site/doboku/doboku-chubu/nakagusukuwanko/16273.html,
472115,,沖縄県,沖縄市,沖縄県中部合同庁舎,,,,沖縄市美原1-6-34,,127.819945,26.347306,,,,,,,,,,,https://www.pref.okinawa.jp/site/somu/kanzai/chosha/tyuubu.html,県庁舎
472123,,沖縄県,豊見城市,豊見城団地県改良住宅,,,,豊見城市字平良188-44,,127.696437,26.169167,,,,,,,,,,,,県公営住宅
472123,,沖縄県,豊見城市,上田団地,,,,豊見城市上田23,,127.684004,26.174795,,,,,,,,,,,,県公営住宅
472123,,沖縄県,豊見城市,真玉橋市街地住宅,,,,豊見城市真玉橋299-1,,127.688072,26.192037,,,,,,,,,,,,県公営住宅
472123,,沖縄県,豊見城市,豊見城高層住宅,,,,豊見城市豊見城979-1,,127.681494,26.192426,,,,,,,,,,,,県公営住宅
472123,,沖縄県,豊見城市,翁長高層住宅,,,,豊見城市翁長717-1,,127.672097,26.154754,,,,,,,,,,,,県公営住宅
472123,,沖縄県,豊見城市,渡橋名団地,,,,豊見城市渡橋名160,,127.676702,26.167006,,,,,,,,,,,,県公営住宅
472123,,沖縄県,豊見城市,豊見城団地,,,,豊見城市平良158-9,,127.697926,26.169921,,,,,,,,,,,,県公営住宅
472123,,沖縄県,豊見城市,沖縄県警察運転免許センター,,,,豊見城市字豊崎3-22,,127.656107,26.155513,098-851-1000,,,,,,,,,,http://www.police.pref.okinawa.jp/docs/2015022800161/,
472131,,沖縄県,うるま市,石川団地,,,,うるま市石川伊波331,,127.821779,26.417888,,,,,,,,,,,,県公営住宅
472131,,沖縄県,うるま市,東恩納団地,,,,うるま市石川東恩納990,,127.822607,26.406359,,,,,,,,,,,,県公営住宅
472131,,沖縄県,うるま市,石川第２団地,,,,うるま市石川伊波1482,,127.808739,26.426926,,,,,,,,,,,,県公営住宅
472131,,沖縄県,うるま市,赤道団地（建替中）,,,,うるま市赤道957-47,,127.829141,26.361253,,,,,,,,,,,,県公営住宅
472131,,沖縄県,うるま市,松原団地,,,,うるま市具志川3512,,127.863319,26.35972,,,,,,,,,,,,県公営住宅
472131,,沖縄県,うるま市,大原団地,,,,うるま市赤道768-1,,127.833647,26.359903,,,,,,,,,,,,県公営住宅
472131,,沖縄県,うるま市,川原団地,,,,うるま市田場309-1,,127.869144,26.364972,,,,,,,,,,,,県公営住宅
472131,,沖縄県,うるま市,具志川東団地,,,,うるま市具志川2888,,127.861839,26.361442,,,,,,,,,,,,県公営住宅
472131,,沖縄県,うるま市,兼原高層住宅,,,,うるま市兼箇段1311-1,,127.842443,26.361828,,,,,,,,,,,,県公営住宅
472131,,沖縄県,うるま市,与那城団地,,,,うるま市与那城西原1040-4,,127.888239,26.327132,,,,,,,,,,,,県公営住宅
472131,,沖縄県,うるま市,勝連団地,,,,うるま市勝連南風原2930,,127.879567,26.332704,,,,,,,,,,,,県公営住宅
472131,,沖縄県,うるま市,衛生環境研究所,,,,うるま市字兼箇段17-1,,127.833723,26.376902,098-987-8211,,,,,,,,,,http://www.pref.okinawa.jp/site/hoken/eiken/,
472131,,沖縄県,うるま市,家畜衛生試験場,,,,うるま市兼箇段3番地1,,127.835441,26.378684,098-979-0260,,,,,,,,,,https://www.pref.okinawa.jp/site/norin/eiseishiken/index.html,
472131,,沖縄県,うるま市,工業技術センター,,,,うるま市字州崎12-2,,127.85016,26.336894,098-929-0111,,,,,,,,,,http://www.pref.okinawa.lg.jp/site/shoko/kogyo,
472131,,沖縄県,うるま市,具志川職業能力開発校,,,,うるま市字兼箇段1945,,127.830858,26.364799,098-973-5954,,,,,,,,,,http://www.pref.okinawa.lg.jp/site/shoko/shokuno-gskw/index.html,
472131,,沖縄県,うるま市,具志川浄化センター（みずクリン具志川）,,,,うるま市州崎1,,127.844487,26.334003,098-938-8630,,,,,,,,,,http://www.pref.okinawa.jp/site/doboku/gesuikan/shomu/gushikawa.html,
472131,,沖縄県,うるま市,石川浄水管理事務所（石川浄水場）,,,,うるま市石川東恩納崎1（2階）,,127.837494,26.41648,098-964-3257,,,,,,,,,,http://www.eb.pref.okinawa.jp/water/72/186#a03,
472131,,沖縄県,うるま市,水質管理事務所,,,,うるま市石川東恩納崎1（1階）,,127.837494,26.41648,098-989-1012,,,,,,,,,,http://www.eb.pref.okinawa.jp/water/72/188#a_suishitsu,
472131,,沖縄県,うるま市,中部病院,,,,うるま市宮里281,,127.834831,26.354635,098-973-4111,,,,,,,,,,http://www.hosp.pref.okinawa.jp/chubu,
472131,,沖縄県,うるま市,石川青少年の家,,,,うるま市石川3491-2,,127.835016,26.445745,098-964-3263,,,,,,,,,,http://unai-sc.net,
472131,,沖縄県,うるま市,倉敷ダム管理所,,,,うるま市石川楚南879-1,,127.805498,26.391791,098-938-9325,,,,,,,,,,http://www.pref.okinawa.jp/site/doboku/doboku-chubu/kurashiki.html,
472140,,沖縄県,宮古島市,平良北団地（建替中）,,,,宮古島市平良西仲宗根531,,125.291442,24.808201,,,,,,,,,,,,県公営住宅
472140,,沖縄県,宮古島市,平良南団地（建替中）,,,,宮古島市平良下里244,,125.271741,24.801773,,,,,,,,,,,,県公営住宅
472140,,沖縄県,宮古島市,平良東団地,,,,宮古島市平良東仲宗根922,,125.298005,24.798555,,,,,,,,,,,,県公営住宅
472140,,沖縄県,宮古島市,平良東第２団地,,,,宮古島市平良東仲宗根949-1,,125.299377,24.79808,,,,,,,,,,,,県公営住宅
472140,,沖縄県,宮古島市,西里団地,,,,宮古島市平良西里935-8,,125.296942,24.794422,,,,,,,,,,,,県公営住宅
472140,,沖縄県,宮古島市,久貝団地,,,,宮古島市平良久貝1013,,125.275416,24.79168,,,,,,,,,,,,県公営住宅
472140,,沖縄県,宮古島市,西仲団地,,,,宮古島市平良西仲宗根328,,125.285637,24.809054,,,,,,,,,,,,県公営住宅
472140,,沖縄県,宮古島市,平良団地,,,,宮古島市平良下里228-1,,125.272411,24.801268,,,,,,,,,,,,県公営住宅
472140,,沖縄県,宮古島市,城辺団地,,,,宮古島市城辺長間704,,125.353329,24.733808,,,,,,,,,,,,県公営住宅
472140,,沖縄県,宮古島市,下地団地,,,,宮古島市下地上地634-47,,125.283312,24.749597,,,,,,,,,,,,県公営住宅
472140,,沖縄県,宮古島市,上野団地,,,,宮古島市上野野原716-1,,125.329814,24.74445,,,,,,,,,,,,県公営住宅
472140,,沖縄県,宮古島市,上野第２団地,,,,宮古島市上野野原715-4,,125.328961,24.7439,,,,,,,,,,,,県公営住宅
472140,,沖縄県,宮古島市,伊良部団地,,,,宮古島市伊良部伊良部1491-14,,125.175194,24.817091,,,,,,,,,,,,県公営住宅
472140,,沖縄県,宮古島市,伊良部第２団地,,,,宮古島市伊良部佐和田1546,,125.161675,24.83872,,,,,,,,,,,,県公営住宅
472140,,沖縄県,宮古島市,宮古事務所,,,,宮古島市平良西里1125（宮古合同庁舎）,,125.292642,24.791709,0980-72-2551,,,,,,,,,,http://www.pref.okinawa.lg.jp/site/somu/miyako/index.html,
472140,,沖縄県,宮古島市,宮古福祉事務所,,,,宮古島市平良字西里1125　宮古合同庁舎２階,,125.292642,24.791709,0980-72-3771,,,,,,,,,,https://www.pref.okinawa.jp/site/kodomo/fukushi-miyako/index.html,
472140,,沖縄県,宮古島市,宮古保健所,,,,宮古島市平良字東仲宗根476,,125.288013,24.803456,0980-72-2420,,,,,,,,,,http://www.pref.okinawa.jp/site/hoken/hoken-miyako/,
472140,,沖縄県,宮古島市,宮古農林水産振興センター,,,,宮古島市平良字西里1125（宮古合同庁舎）,,125.292642,24.791709,0980-72-2552,,,,,,,,,,http://www.pref.okinawa.jp/site/norin/norin-miyako,
472140,,沖縄県,宮古島市,宮古家畜保健衛生所（宮古農林水産振興センター家畜保健衛生課）,,,,宮古島市平良字西里1951,,125.324396,24.775353,0980-72-3321,,,,,,,,,,http://www.pref.okinawa.jp/site/norin/norin-miyako-kaho/index.html,
472140,,沖縄県,宮古島市,農業研究センター　宮古島支所,,,,宮古島市平良西里2071-40,,125.331929,24.771485,0980-72-3148,,,,,,,,,,http://www.pref.okinawa.jp/site/norin/noken-miyako/index.html,
472140,,沖縄県,宮古島市,宮古土木事務所,,,,宮古島市平良西里1125（宮古合同庁舎）,,125.292642,24.791709,0980-72-2769,,,,,,,,,,http://www.pref.okinawa.jp/site/doboku/doboku-miyako,
472140,,沖縄県,宮古島市,下地島空港管理事務所,,,,宮古島市伊良部佐和田1739,,125.149401,24.826945,0980-78-4184,,,,,,,,,,http://www.pref.okinawa.jp/site/doboku/kuko-shimoji,
472140,,沖縄県,宮古島市,宮古病院,,,,宮古島市平良字下里427-1,,125.276336,24.799358,0980-72-3151,,,,,,,,,,http://www.hosp.pref.okinawa.jp/miyako,
472140,,沖縄県,宮古島市,宮古教育事務所,,,,宮古島市平良西里1125（宮古合同庁舎）,,125.292642,24.791709,0980-72-3222,,,,,,,,,,http://www.pref.okinawa.jp/edu/miyako/madoguchi/jimusho/miyako,
472140,,沖縄県,宮古島市,宮古青少年の家,,,,宮古島市平良東仲宗根添1164,,125.315072,24.80422,0980-72-8883,,,,,,,,,,http://www.miyako-banzu.com/miyako,
472140,,沖縄県,宮古島市,沖縄県宮古合同庁舎,,,,宮古島市平良字西里1125,,125.292642,24.791709,,,,,,,,,,,http://www.pref.okinawa.jp/site/somu/miyako/shinko/cyousyanyuukyokikan.html,県庁舎
472158,,沖縄県,南城市,親慶原団地,,,,南城市玉城親慶原123,,127.782404,26.156218,,,,,,,,,,,,県公営住宅
472158,,沖縄県,南城市,知念団地,,,,南城市知念知念118-2,,127.819703,26.164507,,,,,,,,,,,,県公営住宅
472158,,沖縄県,南城市,新開団地,,,,南城市佐敷新開1-315,,127.778592,26.175122,,,,,,,,,,,,県公営住宅
472158,,沖縄県,南城市,新開第２団地,,,,南城市佐敷新開1-236,,127.776742,26.178144,,,,,,,,,,,,県公営住宅
472158,,沖縄県,南城市,仲伊保団地,,,,南城市佐敷仲伊保461-1,,127.799557,26.179519,,,,,,,,,,,,県公営住宅
472158,,沖縄県,南城市,大里団地,,,,南城市大里仲間1-2,,127.744865,26.179021,,,,,,,,,,,,県公営住宅
472158,,沖縄県,南城市,大里第２団地,,,,南城市大里大城2525,,127.752306,26.175168,,,,,,,,,,,,県公営住宅
472158,,沖縄県,南城市,動物愛護管理センター,,,,南城市大里字大里2000,,127.754562,26.183939,098-945-3043,,,,,,,,,,http://aniwel-pref.okinawa/,
472158,,沖縄県,南城市,中央食肉衛生検査所,,,,南城市大里字大里2015,,127.753779,26.184731,098-945-3000,,,,,,,,,,http://www.pref.okinawa.jp/site/hoken/shokuniku-chuo,
472158,,沖縄県,南城市,中央家畜保健衛生所,,,,南城市大里平良2505,,127.748345,26.179344,098-945-2297,,,,,,,,,,http://www.pref.okinawa.jp/site/norin/kaho-chuo/index.html,
472158,,沖縄県,南城市,玉城青少年の家,,,,南城市玉城字玉城420,,127.782661,26.143606,098-948-1513,,,,,,,,,,http://www.okinawa-nanjo-youthhome.jp,
472158,,沖縄県,南城市,南部東道路建設現場事務所,,,,南城市大里字仲間1112-2,,127.747433,26.17522,098-944-5155,,,,,,,,,,https://www.pref.okinawa.lg.jp/site/doboku/doboku-nan/nanbuhigashi/nanbuhigashi_index.html,
473014,,沖縄県,国頭村,家畜改良センター,,,,国頭村字安田1477,,128.296581,26.741742,0980-41-7132,,,,,,,,,,http://www.pref.okinawa.jp/site/norin/kachikukai/nyugyu/nyugyu.html,
473031,,沖縄県,東村,北大東団地,,,,北大東村南247-6,,131.316493,25.934457,,,,,,,,,,,,県公営住宅
473065,,沖縄県,今帰仁村,畜産研究センター,,,,今帰仁村字諸志2009-5,,127.939102,26.686677,0980-56-5142,,,,,,,,,,http://www.pref.okinawa.jp/site/norin/chikuken,
473081,,沖縄県,本部町,栽培漁業センター,,,,本部町字大浜853-1,,127.881043,26.654651,0980-47-5411,,,,,,,,,,http://www.pref.okinawa.jp/site/norin/saibai,
473243,,沖縄県,読谷村,比謝団地,,,,読谷村比謝338-1,,127.753327,26.379093,,,,,,,,,,,,県公営住宅
473243,,沖縄県,読谷村,波平団地,,,,読谷村波平892,,127.728539,26.406334,,,,,,,,,,,,県公営住宅
473251,,沖縄県,嘉手納町,嘉手納高層住宅,,,,嘉手納町水釜566-1,,127.747531,26.36232,,,,,,,,,,,,県公営住宅
473260,,沖縄県,北谷町,砂辺団地,,,,北谷町宮城1-28,,127.750487,26.325777,,,,,,,,,,,,県公営住宅
473260,,沖縄県,北谷町,北谷団地,,,,北谷町吉原177,,127.784033,26.317292,,,,,,,,,,,,県公営住宅
473260,,沖縄県,北谷町,桑江高層住宅,,,,北谷町桑江519-2,,127.774291,26.326652,,,,,,,,,,,,県公営住宅
473260,,沖縄県,北谷町,美浜高層住宅,,,,北谷町美浜14-1,,127.756195,26.321152,,,,,,,,,,,,県公営住宅
473260,,沖縄県,北谷町,北谷浄水管理事務所（北谷浄水場）,,,,北谷町字宮城1-27,,127.747474,26.323043,098-936-7796,,,,,,,,,,http://www.eb.pref.okinawa.jp/water/72/186#a04,
473260,,沖縄県,北谷町,海水淡水化センター,,,,北谷町字宮城1-27,,127.746775,26.323189,098-936-5257,,,,,,,,,,http://www.eb.pref.okinawa.jp/opeb/43/44,
473278,,沖縄県,北中城村,中城公園,,,,沖縄県北中城村字荻道平田原370-2,,127.792595,26.288225,098-935-2666,,,,,,,,,,https://www.pref.okinawa.jp/site/doboku/koen/ryokuchi/nakagusukukoen.html,県営都市公園
473278,,沖縄県,北中城村,北中城団地,,,,北中城村熱田2070-3,,127.811328,26.2961,,,,,,,,,,,,県公営住宅
473286,,沖縄県,中城村,中城団地,,,,中城村津覇1366,,127.781958,26.251778,,,,,,,,,,,,県公営住宅
473286,,沖縄県,中城村,中城第２団地,,,,中城村伊舎堂430,,127.802869,26.277551,,,,,,,,,,,,県公営住宅
473286,,沖縄県,中城村,消防学校,,,,中城村字北上原910,,127.777819,26.263629,098-895-7123,,,,,,,,,,http://www.pref.okinawa.lg.jp/site/chijiko/shobo_sch/index.html,
473294,,沖縄県,西原町,内間団地,,,,西原町内間411-2,,127.768562,26.234713,,,,,,,,,,,,県公営住宅
473294,,沖縄県,西原町,西原団地,,,,西原町小波津44,,127.753551,26.226927,,,,,,,,,,,,県公営住宅
473294,,沖縄県,西原町,幸地高層住宅,,,,西原町幸地981,,127.734138,26.228282,,,,,,,,,,,,県公営住宅
473294,,沖縄県,西原町,坂田高層住宅,,,,西原町幸地146-1,,127.746367,26.234457,,,,,,,,,,,,県公営住宅
473294,,沖縄県,西原町,西原浄化センター（みずクリン西原）,,,,西原町字小那覇875-10,,127.778943,26.219766,098-871-9807,,,,,,,,,,http://www.pref.okinawa.jp/site/doboku/gesuikan/shomu/nishihara.html,
473294,,沖縄県,西原町,西原浄水管理事務所（西原浄水場）,,,,西原町小那覇1336,,127.777492,26.234175,098-945-4404,,,,,,,,,,http://www.eb.pref.okinawa.jp/water/72/186#a05,
473294,,沖縄県,西原町,埋蔵文化財センター,,,,西原町字上原193-7,,127.759623,26.243622,098-835-8751,,,,,,,,,,http://www.pref.okinawa.jp/edu/maizo/madoguchi/soshiki/maizo,
473481,,沖縄県,与那原町,須利原団地,,,,与那原町与那原2941-2,,127.750832,26.202418,,,,,,,,,,,,県公営住宅
473481,,沖縄県,与那原町,与那原団地,,,,与那原町与那原3237,,127.755357,26.197236,,,,,,,,,,,,県公営住宅
473481,,沖縄県,与那原町,与那原第２団地,,,,与那原町板良敷674,,127.77092,26.191237,,,,,,,,,,,,県公営住宅
473502,,沖縄県,南風原町,南風原団地（建替中）,,,,南風原町兼城711,,127.729574,26.189947,,,,,,,,,,,,県公営住宅
473502,,沖縄県,南風原町,南風原第２団地（建替中）,,,,南風原町兼城540,,127.719655,26.194805,,,,,,,,,,,,県公営住宅
473502,,沖縄県,南風原町,南部福祉事務所,,,,南風原町宮平212,,127.738852,26.199478,098-889-6351,,,,,,,,,,http://www.pref.okinawa.jp/site/kodomo/fukushi-nan/index.html,
473502,,沖縄県,南風原町,計量検定所,,,,南風原町字新川272-5,,127.725028,26.206729,098-889-2775,,,,,,,,,,http://www.pref.okinawa.jp/site/kodomo/keiryo/index.html,
473502,,沖縄県,南風原町,南部保健所,,,,南風原町宮平212,,127.738816,26.199079,098-889-6351,,,,,,,,,,http://www.pref.okinawa.jp/site/hoken/hoken-nan/,
473502,,沖縄県,南風原町,総合精神保健福祉センター,,,,南風原町字宮平212-3,,127.738136,26.199322,098-888-1443,,,,,,,,,,http://www.pref.okinawa.lg.jp/site/hoken/seishinhoken/index.html,
473502,,沖縄県,南風原町,南部農業改良普及センター,,,,南風原町字山川517,,127.726851,26.18149,098-889-3515,,,,,,,,,,http://www.pref.okinawa.jp/site/norin/nokai-nan/index.html,
473502,,沖縄県,南風原町,工芸振興センター,,,,南風原町字照屋213,,127.722613,26.185898,098-889-1186,,,,,,,,,,https://www.pref.okinawa.lg.jp/site/shoko/kogeicenter/sankoukoudokougei1.html,
473502,,沖縄県,南風原町,南部医療センター・こども医療センター,,,,南風原町字新川118-1,,127.723829,26.205738,098-888-0123,,,,,,,,,,http://www.hosp.pref.okinawa.jp/nanbu,
473502,,沖縄県,南風原町,精和病院,,,,南風原町字新川260,,127.7279,26.206933,098-889-1390,,,,,,,,,,http://www.hosp.pref.okinawa.jp/seiwa,
473545,,沖縄県,座間味村,座間味ダム管理所,,,,座間味村字座間味825-2,,127.304454,26.232021,098-987-2837,,,,,,,,,,https://www.pref.okinawa.jp/site/doboku/doboku-nan/zamami.html,
473596,,沖縄県,伊平屋村,我喜屋ダム管理所,,,,伊平屋村字我喜屋818,,127.959308,27.025993,0980-46-2673,,,,,,,,,,https://www.pref.okinawa.jp/site/doboku/doboku-hoku/gakiya.html,
473618,,沖縄県,久米島町,海洋深層水研究所,,,,久米島町字真謝500-1,,126.8123,26.356795,098-896-8655,,,,,,,,,,https://www.pref.okinawa.lg.jp/site/norin/shinsosuiken/index.html,
473618,,沖縄県,久米島町,儀間ダム管理所,,,,久米島町比嘉2161-4,,126.788548,26.346445,098-896-8900,,,,,,,,,,http://www.pref.okinawa.jp/site/doboku/doboku-nan/gima.html,
473626,,沖縄県,八重瀬町,伊覇団地,,,,八重瀬町伊覇161番1,,127.71852,26.16148,,,,,,,,,,,,県公営住宅
473626,,沖縄県,八重瀬町,外間団地,,,,八重瀬町宜次644-4,,127.717415,26.174354,,,,,,,,,,,,県公営住宅
473626,,沖縄県,八重瀬町,外間高層住宅,,,,八重瀬町外間176-1,,127.715365,26.176468,,,,,,,,,,,,県公営住宅
473626,,沖縄県,八重瀬町,大頓団地,,,,八重瀬町大頓1331,,127.734967,26.128491,,,,,,,,,,,,県公営住宅
473626,,沖縄県,八重瀬町,長毛団地,,,,八重瀬町長毛345,,127.757243,26.128753,,,,,,,,,,,,県公営住宅
473626,,沖縄県,八重瀬町,屋宜原団地,,,,八重瀬町字屋宜原208-2,,127.725478,26.163722,,,,,,,,,,,,県公営住宅
473626,,沖縄県,八重瀬町,島尻教育事務所,,,,八重瀬町東風平920-1,,127.724269,26.150097,098-998-4416,,,,,,,,,,http://www.pref.okinawa.jp/edu/shimajiri/madoguchi/jimusho/shimajiri,
